[{"OBJECT_NAME":"ICEYE-X4","OBJECT_ID":"2019-038D","EPOCH":"2026-03-09T23:53:58.416000","MEAN_MOTION":15.26985132,"ECCENTRICITY":0.00122769,"INCLINATION":97.8888,"RA_OF_ASC_NODE":96.1923,"ARG_OF_PERICENTER":293.9914,"MEAN_ANOMALY":66.0038,"EPHEMERIS_TYPE":0,"CLASSIFICATION_TYPE":"U","NORAD_CAT_ID":44390,"ELEMENT_SET_NO":999,"REV_AT_EPOCH":36665,"BSTAR":0.00049915294,"MEAN_MOTION_DOT":0.00013179,"MEAN_MOTION_DDOT":0},{"OBJECT_NAME":"STARLINK-31635","OBJECT_ID":"2024-073A","EPOCH":"2026-03-09T01:25:51.771072","MEAN_MOTION":15.27589186,"ECCENTRICITY":0.00013593,"INCLINATION":43.0012,"RA_OF_ASC_NODE":321.2045,"ARG_OF_PERICENTER":281.5119,"MEAN_ANOMALY":78.558,"EPHEMERIS_TYPE":0,"CLASSIFICATION_TYPE":"U","NORAD_CAT_ID":59511,"ELEMENT_SET_NO":999,"REV_AT_EPOCH":10608,"BSTAR":-0.00021782465,"MEAN_MOTION_DOT":-6.253e-5,"MEAN_MOTION_DDOT":0}]
